{
    "links": {
        "self": "http://www.neowsapp.com/rest/v1/neo/3789681?api_key=iIulBulltgU6a56xZRHN4H3l9WmuAYTsLGpBGhQ2"
    },
    "id": "3789681",
    "neo_reference_id": "3789681",
    "name": "(2017 WH15)",
    "designation": "2017 WH15",
    "nasa_jpl_url": "http://ssd.jpl.nasa.gov/sbdb.cgi?sstr=3789681",
    "absolute_magnitude_h": 23.2,
    "estimated_diameter": {
        "kilometers": {
            "estimated_diameter_min": 0.0608912622,
            "estimated_diameter_max": 0.1361570015
        },
        "meters": {
            "estimated_diameter_min": 60.8912622106,
            "estimated_diameter_max": 136.1570015386
        },
        "miles": {
            "estimated_diameter_min": 0.0378360645,
            "estimated_diameter_max": 0.0846040122
        },
        "feet": {
            "estimated_diameter_min": 199.7744887109,
            "estimated_diameter_max": 446.7093369279
        }
    },
    "is_potentially_hazardous_asteroid": false,
    "close_approach_data": [
        {
            "close_approach_date": "2015-11-06",
            "close_approach_date_full": "2015-Nov-06 01:56",
            "epoch_date_close_approach": 1446774960000,
            "relative_velocity": {
                "kilometers_per_second": "14.301524803",
                "kilometers_per_hour": "51485.4892907478",
                "miles_per_hour": "31991.0808317983"
            },
            "miss_distance": {
                "astronomical": "0.4619825287",
                "lunar": "179.7112036643",
                "kilometers": "69111602.270733869",
                "miles": "42943958.3132266322"
            },
            "orbiting_body": "Earth"
        },
        {
            "close_approach_date": "2017-11-23",
            "close_approach_date_full": "2017-Nov-23 08:27",
            "epoch_date_close_approach": 1511425620000,
            "relative_velocity": {
                "kilometers_per_second": "14.8835882543",
                "kilometers_per_hour": "53580.917715304",
                "miles_per_hour": "33293.0985659343"
            },
            "miss_distance": {
                "astronomical": "0.0873009585",
                "lunar": "33.9600728565",
                "kilometers": "13060037.440558395",
                "miles": "8115130.961940051"
            },
            "orbiting_body": "Earth"
        },
        {
            "close_approach_date": "2019-12-12",
            "close_approach_date_full": "2019-Dec-12 14:41",
            "epoch_date_close_approach": 1576161660000,
            "relative_velocity": {
                "kilometers_per_second": "24.2453135758",
                "kilometers_per_hour": "87283.1288728386",
                "miles_per_hour": "54234.3419376813"
            },
            "miss_distance": {
                "astronomical": "0.4965693272",
                "lunar": "193.1654682808",
                "kilometers": "74285713.656453064",
                "miles": "46159002.0447537232"
            },
            "orbiting_body": "Earth"
        }
    ],
    "orbital_data": {
        "orbit_id": "6",
        "orbit_determination_date": "2017-12-17 07:16:56",
        "first_observation_date": "2017-11-24",
        "last_observation_date": "2017-12-16",
        "data_arc_in_days": 22,
        "observations_used": 57,
        "orbit_uncertainty": "7",
        "minimum_orbit_intersection": ".086294",
        "jupiter_tisserand_invariant": "4.146",
        "epoch_osculation": "2459000.5",
        "eccentricity": ".3825047061851199",
        "semi_major_axis": "1.625881623635007",
        "inclination": "23.75512666967909",
        "ascending_node_longitude": "65.07676132951167",
        "orbital_period": "757.2369728053425",
        "perihelion_distance": "1.003974250894713",
        "perihelion_argument": "317.2911252524427",
        "aphelion_distance": "2.247788996375301",
        "perihelion_time": "2458804.556991646998",
        "mean_anomaly": "93.15377555556019",
        "mean_motion": ".4754126025652245",
        "equinox": "J2000",
        "orbit_class": {
            "orbit_class_type": "APO",
            "orbit_class_description": "Near-Earth asteroid orbits which cross the Earth’s orbit similar to that of 1862 Apollo",
            "orbit_class_range": "a (semi-major axis) > 1.0 AU; q (perihelion) < 1.017 AU"
        }
    },
    "is_sentry_object": false
}